{
    "links": {
        "self": "http://www.neowsapp.com/rest/v1/neo/3465887?api_key=iIulBulltgU6a56xZRHN4H3l9WmuAYTsLGpBGhQ2"
    },
    "id": "3465887",
    "neo_reference_id": "3465887",
    "name": "(2009 QW1)",
    "designation": "2009 QW1",
    "nasa_jpl_url": "http://ssd.jpl.nasa.gov/sbdb.cgi?sstr=3465887",
    "absolute_magnitude_h": 21.4,
    "estimated_diameter": {
        "kilometers": {
            "estimated_diameter_min": 0.1394938229,
            "estimated_diameter_max": 0.3119176705
        },
        "meters": {
            "estimated_diameter_min": 139.4938229344,
            "estimated_diameter_max": 311.9176705226
        },
        "miles": {
            "estimated_diameter_min": 0.0866774163,
            "estimated_diameter_max": 0.1938165949
        },
        "feet": {
            "estimated_diameter_min": 457.6569140361,
            "estimated_diameter_max": 1023.3519701574
        }
    },
    "is_potentially_hazardous_asteroid": false,
    "close_approach_data": [
        {
            "close_approach_date": "2009-08-01",
            "close_approach_date_full": "2009-Aug-01 22:39",
            "epoch_date_close_approach": 1249166340000,
            "relative_velocity": {
                "kilometers_per_second": "11.0241681817",
                "kilometers_per_hour": "39687.0054542071",
                "miles_per_hour": "24659.9618056989"
            },
            "miss_distance": {
                "astronomical": "0.216568115",
                "lunar": "84.244996735",
                "kilometers": "32398128.71391505",
                "miles": "20131263.68372569"
            },
            "orbiting_body": "Earth"
        }
    ],
    "orbital_data": {
        "orbit_id": "9",
        "orbit_determination_date": "2017-04-06 09:00:15",
        "first_observation_date": "2009-08-17",
        "last_observation_date": "2009-08-26",
        "data_arc_in_days": 9,
        "observations_used": 17,
        "orbit_uncertainty": "8",
        "minimum_orbit_intersection": ".215687",
        "jupiter_tisserand_invariant": "3.076",
        "epoch_osculation": "2455064.5",
        "eccentricity": ".5433744837642401",
        "semi_major_axis": "2.692045619669453",
        "inclination": "18.76648694336202",
        "ascending_node_longitude": "132.1994740120971",
        "orbital_period": "1613.325691047052",
        "perihelion_distance": "1.22925672081178",
        "perihelion_argument": "173.9896584548793",
        "aphelion_distance": "4.154834518527126",
        "perihelion_time": "2455042.697551642659",
        "mean_anomaly": "4.865032183023638",
        "mean_motion": ".2231415528791085",
        "equinox": "J2000",
        "orbit_class": {
            "orbit_class_type": "AMO",
            "orbit_class_description": "Near-Earth asteroid orbits similar to that of 1221 Amor",
            "orbit_class_range": "1.017 AU < q (perihelion) < 1.3 AU"
        }
    },
    "is_sentry_object": false
}